FLOCK 4G-27             
1 62641U 25009AJ  26068.75406453  .00012587  00000+0  47455-3 0  9991
2 62641  97.3976 150.8631 0000756 322.4974  37.6212 15.27199247 63710
STARLINK-34181          
1 64144U 25111X   26068.43060481  .00030236  00000+0  11024-2 0  9990
2 64144  42.9980  79.3386 0001586 254.8289 105.2387 15.27619505 45429
